NOAA 1 [-]              
1 04793U 70106A   11147.51372183 -.00000031  00000-0  10000-3 0  9046
2 04793 102.0957 161.7738 0032189 168.2309 191.9520 12.53945283851827
NOAA 2 [-]              
1 06235U 72082A   11147.47665145 -.00000027  00000-0  10000-3 0    37
2 06235 101.3996 146.6689 0003737 342.0135  18.0805 12.53014365766309
NOAA 3 [-]              
1 06920U 73086A   11147.49383581 -.00000030  00000-0  10000-3 0  8959
2 06920 101.6980 152.9217 0006095 274.6671  85.3698 12.40314679700210
NOAA 4 [-]              
1 07529U 74089A   11147.54197751 -.00000027  00000-0  10000-3 0  9055
2 07529 101.4070 155.0313 0009159  12.1504 347.9789 12.53062396670897
NOAA 5 [-]              
1 09057U 76077A   11147.50376539 -.00000030  00000-0  10000-3 0  7839
2 09057 101.8162 178.9220 0009956 106.5074 253.7082 12.37792410574248
TIROS N [P]             
1 11060U 78096A   11147.58324093  .00000021  00000-0  33019-4 0  7784
2 11060  99.0161 135.1942 0010769 153.1180 207.0554 14.17560897899459
NOAA 6 [P]              
1 11416U 79057A   11147.47169307  .00000096  00000-0  51598-4 0  7010
2 11416  98.4066 150.3112 0010012 326.6326  33.4233 14.32077603663223
NOAA 7 [-]              
1 12553U 81059A   11147.47565754  .00000011  00000-0  27416-4 0  8159
2 12553  98.7502  95.7668 0012466  83.6024 276.6570 14.16817530545960
NOAA 8 [-]              
1 13923U 83022A   11147.49999944  .00000013  00000-0  22588-4 0  7164
2 13923  98.4958 170.4876 0015128 184.8414 175.2632 14.27783906466068
NOAA 9 [P]              
1 15427U 84123A   11147.48720342  .00000025  00000-0  33832-4 0  5908
2 15427  98.5136 120.2286 0014880 173.4542 186.6837 14.15395557365290
NOAA 10 [-]             
1 16969U 86073A   11147.32174937  .00000084  00000-0  51934-4 0  5135
2 16969  98.6191 177.3916 0011418 288.4724  71.5227 14.27462007284675
NOAA 11 [-]             
1 19531U 88089A   11147.48093028 -.00000109  00000-0 -33972-4 0  5154
2 19531  98.7507 235.3350 0010369 247.3746 112.6298 14.14916118169821
NOAA 12 [B]             
1 21263U 91032A   11147.52388001  .00000044  00000-0  37200-4 0   119
2 21263  98.7503 165.4036 0011363 247.0677 112.9304 14.25712541 41467
NOAA 13 [-]             
1 22739U 93050A   11147.46689692  .00000056  00000-0  54098-4 0  5328
2 22739  98.8130 227.8858 0009944 356.9619   3.1492 14.12272162917070
NOAA 14 [-]             
1 23455U 94089A   11147.51243684 -.00000013  00000-0  16707-4 0  4968
2 23455  98.8505 230.3520 0009443 344.3609  15.7272 14.13819508846158
NOAA 15 [+]             
1 25338U 98030A   11147.31002986 -.00000043  00000-0  29127-6 0  8280
2 25338  98.6527 133.7403 0011127 148.4877 211.6964 14.24915662677753
NOAA 16 [+]             
1 26536U 00055A   11147.32393577 -.00000085  00000-0 -21076-4 0  3107
2 26536  99.1403 177.4412 0011490  91.6162 268.6307 14.12619478550416
NOAA 17 [+]             
1 27453U 02032A   11147.31165925  .00000001  00000-0  18473-4 0  3020
2 27453  98.3797 187.9784 0011186 206.3811 153.6813 14.24274433463686
NOAA 18 [+]             
1 28654U 05018A   11147.33017009  .00000147  00000-0  10573-3 0  7827
2 28654  98.9941  98.4278 0014483 160.2445 199.9288 14.11477664309983
NOAA 19 [S]             
1 33591U 09005A   11147.32279065  .00000339  00000-0  21196-3 0  9732
2 33591  98.8245  87.8275 0014797  38.2046 322.0182 14.11169227118447
